     2.11           N: GPS NAV DATA                         RINEX VERSION / TYPE
CONVBIN 2.4.3                           20160908 091907 UTC PGM / RUN BY / DATE 
log: xxx.ubx                                                COMMENT             
format: u-blox                                              COMMENT             
                                                            END OF HEADER       
 4 16  9  8 10  0  0.0 -.260655302554E-03 -.227373675443E-12  .000000000000E+00
     .400000000000E+01 -.257812500000E+02  .555558855542E-08  .160671598491E+01
    -.134296715260E-05  .843903410714E-02  .569224357605E-05  .515367445564E+04
     .381600000000E+06 -.191852450371E-06  .167221999250E+00  .335276126862E-07
     .983338089304E+00  .283281250000E+03  .899560744190E+00 -.806497879588E-08
    -.111076055335E-09  .100000000000E+01  .191300000000E+04  .000000000000E+00
     .240000000000E+01  .630000000000E+02 -.195577740669E-07  .400000000000E+01
     .378966000000E+06  .400000000000E+01
26 16  9  8  9 59 44.0 -.465321820229E-03 -.761701812735E-11  .000000000000E+00
     .180000000000E+02 -.251875000000E+02  .479019953104E-08  .230474302205E+01
    -.120885670185E-05  .950160087086E-03  .511854887009E-05  .515357437897E+04
     .381584000000E+06  .372529029846E-08  .134349737006E+00  .838190317154E-07
     .960467065046E+00  .280250000000E+03 -.484851676704E-01 -.828284501374E-08
    -.732173355102E-10  .100000000000E+01  .191300000000E+04  .000000000000E+00
     .240000000000E+01  .000000000000E+00  .698491930962E-08  .180000000000E+02
     .378966000000E+06  .400000000000E+01
29 16  9  8 10  0  0.0  .651545356959E-03 -.113686837722E-11  .000000000000E+00
     .310000000000E+02 -.444062500000E+02  .400445251581E-08  .246814064769E+01
    -.238046050072E-05  .572205637582E-03  .895373523235E-05  .515375852394E+04
     .381600000000E+06 -.186264514923E-07  .124596518347E+01  .745058059692E-08
     .978242592028E+00  .216468750000E+03  .120250476344E+00 -.778353850134E-08
     .857178562071E-11  .100000000000E+01  .191300000000E+04  .000000000000E+00
     .240000000000E+01  .000000000000E+00 -.102445483208E-07  .310000000000E+02
     .378966000000E+06  .400000000000E+01
16 16  9  8  9 59 44.0  .531226396561E-05  .193267624127E-11  .000000000000E+00
     .190000000000E+02 -.318125000000E+02  .408624163694E-08  .138043189980E+01
    -.144354999065E-05  .867043260951E-02  .596605241299E-05  .515356102943E+04
     .381584000000E+06  .447034835815E-07  .216050777119E+00  .137835741043E-06
     .990913874946E+00  .280968750000E+03  .388182047100E+00 -.799711882638E-08
    -.218937691062E-09  .100000000000E+01  .191300000000E+04  .000000000000E+00
     .240000000000E+01  .000000000000E+00 -.107102096081E-07  .190000000000E+02
     .378966000000E+06  .400000000000E+01
31 16  9  8 10  0  0.0  .249133445323E-03 -.204636307899E-11  .000000000000E+00
     .500000000000E+02  .507187500000E+02  .450625913235E-08 -.249017873760E+01
     .280514359474E-05  .831114221364E-02  .623054802418E-05  .515354591942E+04
     .381600000000E+06 -.188127160072E-06 -.870958776392E+00  .521540641785E-07
     .969883759003E+00  .267281250000E+03 -.382610599667E+00 -.800783355841E-08
     .144291724615E-09  .100000000000E+01  .191300000000E+04  .000000000000E+00
     .240000000000E+01  .000000000000E+00 -.135041773319E-07  .500000000000E+02
     .378966000000E+06  .400000000000E+01
 5 16  9  8 10  0  0.0 -.925185158849E-04  .261479726760E-11  .000000000000E+00
     .960000000000E+02 -.164062500000E+02  .486520265522E-08  .128417562355E+01
    -.689178705215E-06  .473724945914E-02  .780075788498E-05  .515359060287E+04
     .381600000000E+06 -.782310962677E-07 -.301121353958E+01  .167638063431E-07
     .946853115753E+00  .223531250000E+03  .499709766140E+00 -.819927010394E-08
    -.223937899341E-09  .100000000000E+01  .191300000000E+04  .000000000000E+00
     .240000000000E+01  .000000000000E+00 -.107102096081E-07  .960000000000E+02
     .378966000000E+06  .400000000000E+01
